OBJECT_NAME,OBJECT_ID,EPOCH,MEAN_MOTION,ECCENTRICITY,INCLINATION,RA_OF_ASC_NODE,ARG_OF_PERICENTER,MEAN_ANOMALY,EPHEMERIS_TYPE,CLASSIFICATION_TYPE,NORAD_CAT_ID,ELEMENT_SET_NO,REV_AT_EPOCH,BSTAR,MEAN_MOTION_DOT,MEAN_MOTION_DDOT
ONEWEB-0130,2020-100U,2026-07-12T19:20:00.896352,13.12442380,.0001816,87.8958,345.5586,95.4562,264.6774,0,U,47276,999,26800,.9613E-3,.359E-5,0
ONEWEB-0131,2020-100V,2026-07-12T19:15:08.370144,13.12441869,.0001831,87.8957,345.5753,100.3638,259.7696,0,U,47277,999,26804,.10694E-2,.397E-5,0
ONEWEB-0132,2020-100W,2026-07-12T08:57:54.009792,13.12442492,.00018427,87.8959,345.6630,97.1500,262.9838,0,U,47278,999,26788,-.11256056E-2,-.392E-5,0
ONEWEB-0133,2020-100X,2026-07-12T20:20:47.046336,13.12444499,.0001805,87.8971,345.5475,99.7548,260.3784,0,U,47279,999,26810,-.55232E-3,-.186E-5,0
ONEWEB-0134,2020-100Y,2026-07-12T10:28:10.226208,13.12441719,.00020213,87.8969,345.6265,101.6810,258.4546,0,U,47280,999,26802,-.20645751E-3,-.62E-6,0
ONEWEB-0135,2020-100Z,2026-07-12T09:46:42.276000,13.12443588,.00019236,87.8955,345.6513,105.4321,254.7020,0,U,47281,999,26804,.11335971E-2,.421E-5,0
ONEWEB-0136,2020-100AA,2026-07-12T10:13:32.348640,13.12442034,.00016579,87.8928,345.6304,94.1689,265.9629,0,U,47282,999,26797,.64318929E-3,.244E-5,0
ONEWEB-0137,2020-100AB,2026-07-12T20:11:13.580160,13.12443834,.0001807,87.8974,345.5606,91.9227,268.2108,0,U,47283,999,26793,-.10875E-2,-.379E-5,0
ONEWEB-0138,2020-100AC,2026-07-12T10:30:36.818496,13.12441712,.00018574,87.8946,345.6435,98.1985,261.9354,0,U,47284,999,26796,-.51470712E-3,-.172E-5,0
ONEWEB-0139,2020-100AD,2026-07-12T18:48:30.168864,13.12443784,.0001924,87.8968,345.5622,95.8668,264.2680,0,U,47285,999,26808,.8048E-3,.302E-5,0
ONEWEB-0140,2020-100AE,2026-07-12T10:23:17.729376,13.12441452,.00015909,87.8957,345.6226,97.3058,262.8252,0,U,47286,999,26800,-.8162646E-4,-.17E-6,0
ONEWEB-0141,2020-100AF,2026-07-12T18:48:05.507712,13.12443415,.0001865,87.8968,345.5585,87.0065,273.1276,0,U,47287,999,26803,.33878E-3,.135E-5,0
ONEWEB-0142,2020-100AG,2026-07-12T20:21:11.563200,13.12445116,.0002184,87.8959,345.5657,89.9733,270.1646,0,U,47288,999,26803,-.49961E-3,-.167E-5,0
ONEWEB-0143,2020-100AH,2026-07-12T09:36:56.792448,13.12444030,.00018036,87.8959,345.6543,95.2684,264.8650,0,U,47289,999,26795,.49931058E-3,.192E-5,0
ONEWEB-0144,2020-100AJ,2026-07-12T08:55:27.957504,13.12442418,.00022429,87.8969,345.6354,97.9242,262.2142,0,U,47290,999,26787,-.10714857E-2,-.373E-5,0
ONEWEB-0145,2020-100AK,2026-07-12T19:12:41.829696,13.12440857,.0001409,87.8925,345.5727,55.8715,304.2547,0,U,47291,999,26812,.12411E-2,.459E-5,0
ONEWEB-0146,2020-100AL,2026-07-12T19:07:49.045152,13.12442975,.0001053,87.8928,345.5655,67.2954,292.8285,0,U,47292,999,26803,.10486E-2,.39E-5,0
ONEWEB-0147,2020-100AM,2026-07-12T20:08:47.386176,13.12443935,.0001981,87.8978,345.5417,102.7772,257.3578,0,U,47293,999,26793,-.7074E-3,-.242E-5,0
ONEWEB-0115,2021-025A,2026-07-12T18:30:46.863072,13.13465231,.0001882,87.8986,315.1318,99.9572,260.1770,0,U,48042,999,25695,-.18926E-2,-.678E-5,0
ONEWEB-0152,2021-025B,2026-07-12T18:50:18.553344,13.13473595,.0001795,87.8988,315.1273,103.1835,256.9495,0,U,48043,999,25691,.98199E-3,.371E-5,0
ONEWEB-0153,2021-025C,2026-07-12T18:18:36.065088,13.13469984,.0002019,87.8974,315.1329,97.9717,262.1641,0,U,48044,999,25690,-.43897E-3,-.148E-5,0
ONEWEB-0154,2021-025D,2026-07-12T18:13:43.664160,13.13470362,.0001909,87.8987,315.1325,106.0543,254.0796,0,U,48045,999,25686,-.60767E-3,-.209E-5,0
ONEWEB-0116,2021-025E,2026-07-12T17:20:06.262080,13.13469589,.0001876,87.8992,315.1366,106.6534,253.4801,0,U,48046,999,25700,.56797E-3,.22E-5,0
ONEWEB-0150,2021-025F,2026-07-12T18:35:40.674048,13.13470306,.0001891,87.8983,315.1244,95.4071,264.7274,0,U,48047,999,25690,.34544E-3,.139E-5,0
ONEWEB-0107,2021-025G,2026-07-12T18:38:07.364832,13.13472774,.0002122,87.8983,315.1203,98.2869,261.8500,0,U,48048,999,25688,.36453E-3,.146E-5,0
ONEWEB-0101,2021-025H,2026-07-12T17:44:28.735008,13.13470407,.0002146,87.8980,315.1400,111.5222,248.6136,0,U,48049,999,25685,-.60192E-3,-.207E-5,0
ONEWEB-0113,2021-025J,2026-07-12T18:07:43.320000,13.13891481,.0001884,87.8976,315.0453,96.8016,263.3328,0,U,48050,999,25696,-.7736E-3,-.271E-5,0
ONEWEB-0112,2021-025K,2026-07-12T18:45:25.670304,13.13469700,.0002201,87.8981,315.1176,101.6097,258.5279,0,U,48051,999,25695,.85334E-3,.324E-5,0
ONEWEB-0156,2021-025L,2026-07-12T18:57:36.626400,13.13471976,.000205,87.8988,315.1248,97.0617,263.0746,0,U,48052,999,25693,.89719E-3,.34E-5,0
ONEWEB-0161,2021-025M,2026-07-12T18:21:02.304000,13.13469770,.0002068,87.8986,315.1310,96.7691,263.3673,0,U,48053,999,25686,-.37631E-3,-.125E-5,0
